NORAD_CAT_ID,OBJECT_NAME,OBJECT_TYPE,EPOCH,MEAN_MOTION,ECCENTRICITY,INCLINATION,RA_OF_ASC_NODE,ARG_OF_PERICENTER,MEAN_ANOMALY,BSTAR,MEAN_MOTION_DOT,MEAN_MOTION_DDOT,TLE_LINE0,TLE_LINE1,TLE_LINE2,SEMIMAJOR_AXIS,PERIOD,APOGEE,PERIGEE,DECAYED
55916.0,STARLINK-5796,PAYLOAD,2023-06-18 18:18:54,14.98340712,0.0002971,69.9992,293.143,269.1313,90.9506,9.6538e-05,1.059e-05,0.0,0 STARLINK-5796,1 55916U 23037C   23169.76312862  .00001059  00000-0  96538-4 0  9997,2 55916  69.9992 293.1430 0002971 269.1313  90.9506 14.98340712 14450,6950.16,96.106,574.09,569.96,0.0
55916.0,STARLINK-5796,PAYLOAD,2023-06-19 15:08:38,14.98364464,0.0002774,69.9993,290.9551,263.6264,96.458,-0.00042893,-5.212e-05,0.0,0 STARLINK-5796,1 55916U 23037C   23170.63100182 -.00005212  00000-0 -42893-3 0  9996,2 55916  69.9993 290.9551 0002774 263.6264  96.4580 14.98364464 14920,6950.086,96.105,573.879,570.023,0.0
55916.0,STARLINK-5796,PAYLOAD,2023-06-20 00:45:27,14.98355341,0.0003189,69.9996,289.946,269.8805,90.1989,-0.00039748,-4.836e-05,0.0,0 STARLINK-5796,1 55916U 23037C   23171.03156259 -.00004836  00000-0 -39748-3 0  9993,2 55916  69.9996 289.9460 0003189 269.8805  90.1989 14.98355341 14984,6950.115,96.105,574.196,569.763,0.0
55916.0,STARLINK-5796,PAYLOAD,2023-06-20 16:46:46,14.98390874,0.0003199,69.9998,288.2625,266.0216,94.0577,-0.00096158,-0.00011566,0.0,0 STARLINK-5796,1 55916U 23037C   23171.69915252 -.00011566  00000-0 -96158-3 0  9997,2 55916  69.9998 288.2625 0003199 266.0216  94.0577 14.98390874 15085,6950.005,96.103,574.093,569.646,0.0
55916.0,STARLINK-5796,PAYLOAD,2023-06-21 12:00:24,14.98329498,0.0003033,69.9995,286.2419,270.8311,89.25,-4.0048e-05,-5.71e-06,0.0,0 STARLINK-5796,1 55916U 23037C   23172.50028803 -.00000571  00000-0 -40048-4 0  9997,2 55916  69.9995 286.2419 0003033 270.8311  89.2500 14.98329498 15207,6950.194,96.107,574.167,569.951,0.0
55916.0,STARLINK-5796,PAYLOAD,2023-06-21 13:36:32,14.98330579,0.0003012,69.9995,286.0737,270.1791,89.9023,-2.6307e-05,-4.07e-06,0.0,0 STARLINK-5796,1 55916U 23037C   23172.56704690 -.00000407  00000-0 -26307-4 0  9998,2 55916  69.9995 286.0737 0003012 270.1791  89.9023 14.98330579 14871,6950.191,96.107,574.149,569.963,0.0
55916.0,STARLINK-5796,PAYLOAD,2023-06-21 16:48:48,14.98330962,0.0003017,69.9996,285.737,270.2858,89.7955,-2.1034e-05,-3.44e-06,0.0,0 STARLINK-5796,1 55916U 23037C   23172.70056644 -.00000344  00000-0 -21034-4 0  9995,2 55916  69.9996 285.7370 0003017 270.2858  89.7955 14.98330962 14891,6950.19,96.107,574.152,569.958,0.0
55916.0,STARLINK-5796,PAYLOAD,2023-06-22 00:49:28,14.98367003,0.0003218,69.9995,284.8953,267.251,92.8281,-0.00063835,-7.709e-05,0.0,0 STARLINK-5796,1 55916U 23037C   23173.03435655 -.00007709  00000-0 -63835-3 0  9991,2 55916  69.9995 284.8953 0003218 267.2510  92.8281 14.98367003 15288,6950.078,96.105,574.18,569.707,0.0
55916.0,STARLINK-5796,PAYLOAD,2023-06-22 10:26:17,14.98329186,0.0003121,69.9991,283.885,270.0436,90.0365,3.0382e-06,-5.7e-07,0.0,0 STARLINK-5796,1 55916U 23037C   23173.43492638 -.00000057  00000-0  30382-5 0  9990,2 55916  69.9991 283.8850 0003121 270.0436  90.0365 14.98329186 15341,6950.195,96.107,574.23,569.891,0.0
55916.0,STARLINK-5796,PAYLOAD,2023-06-23 10:28:18,14.98326847,0.0003152,69.9993,281.3607,269.9836,90.0962,2.5998e-05,2.17e-06,0.0,0 STARLINK-5796,1 55916U 23037C   23174.43632767  .00000217  00000-0  25998-4 0  9993,2 55916  69.9993 281.3607 0003152 269.9836  90.0962 14.98326847 15491,6950.203,96.107,574.258,569.877,0.0
55916.0,STARLINK-5796,PAYLOAD,2023-06-24 16:54:51,14.98336562,0.0003155,69.9992,278.1618,267.4965,92.5833,7.4465e-05,7.96e-06,0.0,0 STARLINK-5796,1 55916U 23037C   23175.70475874  .00000796  00000-0  74465-4 0  9993,2 55916  69.9992 278.1618 0003155 267.4965  92.5833 14.98336562 15685,6950.173,96.107,574.23,569.845,0.0
55916.0,STARLINK-5796,PAYLOAD,2023-06-25 08:56:12,14.9832949,0.0003045,69.9994,276.4786,268.0565,92.0245,-1.8258e-06,-1.15e-06,0.0,0 STARLINK-5796,1 55916U 23037C   23176.37236481 -.00000115  00000-0 -18258-5 0  9992,2 55916  69.9994 276.4786 0003045 268.0565  92.0245 14.98329490 15780,6950.194,96.107,574.176,569.943,0.0
55916.0,STARLINK-5796,PAYLOAD,2023-06-26 08:58:13,14.98327208,0.0003077,69.9994,273.9538,267.2368,92.8438,-5.1453e-05,-7.07e-06,0.0,0 STARLINK-5796,1 55916U 23037C   23177.37376698 -.00000707  00000-0 -51453-4 0  9998,2 55916  69.9994 273.9538 0003077 267.2368  92.8438 14.98327208 15938,6950.202,96.107,574.205,569.928,0.0
55916.0,STARLINK-5796,PAYLOAD,2023-06-27 10:36:22,14.98331509,0.000312,69.9995,271.2607,266.8028,93.2775,2.8623e-05,2.49e-06,0.0,0 STARLINK-5796,1 55916U 23037C   23178.44192231  .00000249  00000-0  28623-4 0  9998,2 55916  69.9995 271.2607 0003120 266.8028  93.2775 14.98331509 16090,6950.188,96.107,574.222,569.885,0.0
55916.0,STARLINK-5796,PAYLOAD,2023-06-28 15:26:47,14.98327964,0.0003181,69.9994,268.2311,267.8045,92.275,5.0242e-05,5.06e-06,0.0,0 STARLINK-5796,1 55916U 23037C   23179.64360397  .00000506  00000-0  50242-4 0  9999,2 55916  69.9994 268.2311 0003181 267.8045  92.2750 14.98327964 16276,6950.199,96.107,574.275,569.853,0.0
55916.0,STARLINK-5796,PAYLOAD,2023-06-29 15:28:48,14.9833192,0.0003224,69.9993,265.7064,268.9893,91.0896,-5.9196e-06,-1.64e-06,0.0,0 STARLINK-5796,1 55916U 23037C   23180.64500297 -.00000164  00000-0 -59196-5 0  9996,2 55916  69.9993 265.7064 0003224 268.9893  91.0896 14.98331920 16425,6950.187,96.107,574.293,569.811,0.0
55916.0,STARLINK-5796,PAYLOAD,2023-06-30 15:30:48,14.98334441,0.0003354,69.9989,263.1807,270.017,90.0605,7.0074e-05,7.43e-06,0.0,0 STARLINK-5796,1 55916U 23037C   23181.64639766  .00000743  00000-0  70074-4 0  9999,2 55916  69.9989 263.1807 0003354 270.0170  90.0605 14.98334441 16577,6950.179,96.107,574.375,569.713,0.0
55916.0,STARLINK-5796,PAYLOAD,2023-07-01 09:08:18,14.98327403,0.0003334,69.999,261.3291,269.9398,90.1379,-2.91e-05,-4.4e-06,0.0,0 STARLINK-5796,1 55916U 23037C   23182.38076467 -.00000440  00000-0 -29100-4 0  9994,2 55916  69.9990 261.3291 0003334 269.9398  90.1379 14.98327403 16684,6950.201,96.107,574.383,569.749,0.0
55916.0,STARLINK-5796,PAYLOAD,2023-07-02 10:46:26,14.98333198,0.0003344,69.9989,258.6359,269.7405,90.3371,6.8831e-06,-1.1e-07,0.0,0 STARLINK-5796,1 55916U 23037C   23183.44891979 -.00000011  00000-0  68831-5 0  9993,2 55916  69.9989 258.6359 0003344 269.7405  90.3371 14.98333198 16844,6950.183,96.107,574.372,569.724,0.0
55916.0,STARLINK-5796,PAYLOAD,2023-07-03 12:24:35,14.98331373,0.000341,69.9988,255.9426,268.1651,91.9117,6.2564e-05,6.54e-06,0.0,0 STARLINK-5796,1 55916U 23037C   23184.51707758  .00000654  00000-0  62564-4 0  9991,2 55916  69.9988 255.9426 0003410 268.1651  91.9117 14.98331373 17005,6950.189,96.107,574.424,569.684,0.0
55916.0,STARLINK-5796,PAYLOAD,2023-07-04 14:02:44,14.98329582,0.000343,69.9988,253.25,270.501,89.5756,-2.268e-05,-3.64e-06,0.0,0 STARLINK-5796,1 55916U 23037C   23185.58524062 -.00000364  00000-0 -22680-4 0  9999,2 55916  69.9988 253.2500 0003430 270.5010  89.5756 14.98329582 17165,6950.194,96.107,574.443,569.675,0.0
55916.0,STARLINK-5796,PAYLOAD,2023-07-05 10:52:30,14.98318022,0.0003662,69.9985,251.0617,269.8794,90.1946,-0.00015569,-1.95e-05,0.0,0 STARLINK-5796,1 55916U 23037C   23186.45313199 -.00001950  00000-0 -15569-3 0  9992,2 55916  69.9985 251.0617 0003662 269.8794  90.1946 14.98318022 17294,6950.23,96.108,574.64,569.55,0.0
55916.0,STARLINK-5796,PAYLOAD,2023-07-06 10:54:31,14.98322145,0.0003826,69.9981,248.5363,267.9325,92.1395,-6.6226e-05,-8.83e-06,0.0,0 STARLINK-5796,1 55916U 23037C   23187.45453446 -.00000883  00000-0 -66226-4 0  9994,2 55916  69.9981 248.5363 0003826 267.9325  92.1395 14.98322145 17448,6950.217,96.108,574.741,569.423,0.0
55916.0,STARLINK-5796,PAYLOAD,2023-07-07 02:55:52,14.98334575,0.0003786,69.9983,246.8528,268.0458,92.0268,-7.3421e-05,-9.69e-06,0.0,0 STARLINK-5796,1 55916U 23037C   23188.12212969 -.00000969  00000-0 -73421-4 0  9992,2 55916  69.9983 246.8528 0003786 268.0458  92.0268 14.98334575 17547,6950.179,96.107,574.675,569.412,0.0
55916.0,STARLINK-5796,PAYLOAD,2023-07-08 02:57:52,14.98336746,0.0003734,69.9989,244.328,267.4222,92.651,0.00017119,1.951e-05,0.0,0 STARLINK-5796,1 55916U 23037C   23189.12352354  .00001951  00000-0  17119-3 0  9997,2 55916  69.9989 244.3280 0003734 267.4222  92.6510 14.98336746 17690,6950.172,96.107,574.632,569.442,0.0
55916.0,STARLINK-5796,PAYLOAD,2023-07-08 20:35:20,14.98365438,0.000349,70.0002,242.4764,270.6483,89.4276,-0.00038082,-4.638e-05,0.0,0 STARLINK-5796,1 55916U 23037C   23189.85787321 -.00004638  00000-0 -38082-3 0  9992,2 55916  70.0002 242.4764 0003490 270.6483  89.4276 14.98365438 17805,6950.083,96.105,574.374,569.523,0.0
55916.0,STARLINK-5796,PAYLOAD,2023-07-09 12:36:41,14.98334659,0.0003575,69.9997,240.7934,267.2582,92.8168,-1.5589e-05,-2.79e-06,0.0,0 STARLINK-5796,1 55916U 23037C   23190.52548219 -.00000279  00000-0 -15589-4 0  9994,2 55916  69.9997 240.7934 0003575 267.2582  92.8168 14.98334659 17901,6950.178,96.107,574.528,569.559,0.0
55916.0,STARLINK-5796,PAYLOAD,2023-07-10 12:38:42,14.98336801,0.0003551,69.9996,238.269,266.16,93.9153,-0.0001078,-1.379e-05,0.0,0 STARLINK-5796,1 55916U 23037C   23191.52687808 -.00001379  00000-0 -10780-3 0  9992,2 55916  69.9996 238.2690 0003551 266.1600  93.9153 14.98336801 18058,6950.172,96.107,574.505,569.569,0.0
55916.0,STARLINK-5796,PAYLOAD,2023-07-12 03:05:55,14.98331716,0.0003694,69.9993,234.2287,267.8078,92.2658,5.4712e-05,5.6e-06,0.0,0 STARLINK-5796,1 55916U 23037C   23193.12911289  .00000560  00000-0  54712-4 0  9996,2 55916  69.9993 234.2287 0003694 267.8078  92.2658 14.98331716 18296,6950.188,96.107,574.62,569.485,0.0
55916.0,STARLINK-5796,PAYLOAD,2023-07-13 12:44:45,14.98315565,0.0003726,69.9993,230.6938,270.6143,89.4589,0.00020362,2.336e-05,0.0,0 STARLINK-5796,1 55916U 23037C   23194.53107872  .00002336  00000-0  20362-3 0  9993,2 55916  69.9993 230.6938 0003726 270.6143  89.4589 14.98315565 18509,6950.238,96.108,574.692,569.513,0.0
